ONEWEB-0401             
1 50481U 21132N   23304.89662337 -.00004356  00000+0 -11083-1 0  9996
2 50481  87.9236 166.2750 0002735  70.2004 289.9422 13.18705331 95183
ONEWEB-0402             
1 50482U 21132P   23304.86290834 -.00003355  00000+0 -85424-2 0  9992
2 50482  87.9245 166.2790 0002240  58.5130 301.6221 13.18704367 95208
ONEWEB-0403             
1 50483U 21132Q   23304.65845104  .00000094  00000+0  20463-3 0  9994
2 50483  87.9249 166.3227 0001911  81.3665 278.7683 13.18686840 95133
ONEWEB-0404             
1 50484U 21132R   23304.82317622  .00000445  00000+0  12197-2 0  9997
2 50484  87.9001 211.6567 0002127  88.6730 271.4641 13.11419232 89953
ONEWEB-0405             
1 50485U 21132S   23304.91177168  .00000031  00000+0  45608-4 0  9993
2 50485  87.9248 166.2664 0002063  71.0223 289.1133 13.19204396 95569
ONEWEB-0406             
1 50486U 21132T   23304.89029503 -.00001943  00000+0 -49618-2 0  9998
2 50486  87.9247 166.2763 0002190  87.2088 272.9294 13.18695862 95196
ONEWEB-0407             
1 50487U 21132U   23304.65633565 -.00000103  00000+0 -29458-3 0  9990
2 50487  87.9247 166.3307 0001835  77.9552 282.1786 13.18686437 95107
ONEWEB-0409             
1 50488U 21132V   23304.82155674  .00000481  00000+0  13227-2 0  9993
2 50488  87.9002 211.6728 0001863  95.7268 264.4072 13.11416094 89849
